CARBONITE1(CBNT-1)
1 40718U 15032D   18094.46386978  .00000016  00000-0  10001-4 0  9997
2 40718  97.9382 346.2353 0015579 284.9870  74.9621 14.74590589147172
